0 COSMOS 1818 COOLANT
1 36941U 87011V   13272.39597507  .00000316  00000-0  15243-3 0  1798
2 36941 065.0055 285.9962 0020060 264.5830 095.3070 14.32676583227687
0 COSMOS 1818 COOLANT
1 36941U 87011V   13276.38790571  .00000361  00000-0  16890-3 0  1808
2 36941 065.0106 274.7858 0019824 265.0990 162.2969 14.32681052228255
0 COSMOS 1818 COOLANT
1 36941U 87011V   13281.33089962  .00000338  00000-0  16053-3 0  1810
2 36941 065.0053 260.9268 0019081 263.5971 096.2720 14.32684658228969
0 COSMOS 1818 COOLANT
1 36941U 87011V   13285.51913442  .00000417  00000-0  18951-3 0  1821
2 36941 065.0074 249.1780 0019614 262.4247 097.4893 14.32690033229561
